DMSP 5D-3 F16 (USA 172) 
1 28054U 03048A   26179.98696944  .00000000  00000+0  23376-4 0  9998
2 28054  98.9887 203.8932 0008129 110.8262 357.9804 14.14483866171153
METEOSAT-9 (MSG-2)      
1 28912U 05049B   26179.96874971  .00000126  00000+0  00000+0 0  9993
2 28912   9.3869  54.0519 0001919 359.7363 257.8028  1.00278597  7119
DMSP 5D-3 F17 (USA 191) 
1 29522U 06050A   26179.90776558  .00000036  00000+0  41058-4 0  9993
2 29522  98.7378 186.2380 0010676  28.6287 331.5471 14.14994429 14089
FENGYUN 3A              
1 32958U 08026A   26179.81807552  .00000054  00000+0  46229-4 0  9999
2 32958  98.6885 120.4338 0009882  93.7392 266.4914 14.19573428937054
GOES 14                 
1 35491U 09033A   26179.97363229 -.00000320  00000+0  00000+0 0  9997
2 35491   1.7194  82.9122 0002280  21.3456 298.2505  1.00107335  6707
DMSP 5D-3 F18 (USA 210) 
1 35951U 09057A   26179.95062208  .00000222  00000+0  13803-3 0  9994
2 35951  98.9042 160.6944 0010284 212.8775 147.1759 14.14903170861250
EWS-G2 (GOES 15)        
1 36411U 10008A   26179.74563877  .00000031  00000+0  00000+0 0  9998
2 36411   1.3085  82.6878 0005387  43.8521 122.2535  1.00268162 59751
COMS 1                  
1 36744U 10032A   26179.88083644  .00000000  00000+0  00000+0 0  9994
2 36744   4.8340  75.2205 0011906  13.2283 172.4608  0.99167678 51201
FENGYUN 3B              
1 37214U 10059A   26179.98352052  .00000198  00000+0  12543-3 0  9996
2 37214  98.9620 226.0477 0022557 150.8489 327.1675 14.14844587809090
SUOMI NPP               
1 37849U 11061A   26179.97073516  .00000048  00000+0  44008-4 0  9994
2 37849  98.7955 120.7664 0000872 329.4173  30.6952 14.19519672760113
METEOSAT-10 (MSG-3)     
1 38552U 12035B   26179.94684640  .00000001  00000+0  00000+0 0  9999
2 38552   4.6984  60.9662 0001740  11.6522 185.4397  1.00269046 50970
METOP-B                 
1 38771U 12049A   26179.94492028  .00000093  00000+0  62374-4 0  9992
2 38771  98.6499 231.2093 0001506 343.0595  17.0532 14.21442332714932
INSAT-3D                
1 39216U 13038B   26179.97250562 -.00000329  00000+0  00000+0 0  9990
2 39216   1.9556  82.4049 0001152   7.2446 307.0312  1.00270831 47197
FENGYUN 3C              
1 39260U 13052A   26179.91694935  .00000066  00000+0  54862-4 0  9992
2 39260  98.4985 153.2534 0014566 354.5750   5.5264 14.15757563660221
METEOR-M 2              
1 40069U 14037A   26179.97111475  .00000132  00000+0  79448-4 0  9995
2 40069  98.5113 155.2921 0006136  14.2829 345.8521 14.21465095620996
HIMAWARI-8              
1 40267U 14060A   26179.90345765 -.00000264  00000+0  00000+0 0  9995
2 40267   0.0170 350.9206 0001128 105.0666 286.9157  1.00273514 42872
FENGYUN 2G              
1 40367U 14090A   26179.98239250 -.00000295  00000+0  00000+0 0  9992
2 40367   5.6682  72.6781 0003639 149.6814 147.9948  1.00268300 42114
METEOSAT-11 (MSG-4)     
1 40732U 15034A   26179.87745642  .00000070  00000+0  00000+0 0  9992
2 40732   3.2298  71.0380 0002229 347.7358 183.4638  1.00266734  7338
ELEKTRO-L 2             
1 41105U 15074A   26178.94596200 -.00000113  00000+0  00000+0 0  9991
2 41105   6.7214  70.3918 0000680 283.3260 248.3287  1.00271140 38617
SENTINEL-3A             
1 41335U 16011A   26179.92825939  .00000096  00000+0  57547-4 0  9993
2 41335  98.6246 247.1431 0001429  96.2235 263.9108 14.26735697539734
INSAT-3DR               
1 41752U 16054A   26178.76511551 -.00000065  00000+0  00000+0 0  9990
2 41752   0.1323  86.1351 0010036 186.7215 352.4288  1.00272445 35920
HIMAWARI-9              
1 41836U 16064A   26179.97475897 -.00000264  00000+0  00000+0 0  9991
2 41836   0.0151  71.9422 0001218  45.9539 290.8317  1.00270302 35321
GOES 16                 
1 41866U 16071A   26179.92614309 -.00000080  00000+0  00000+0 0  9996
2 41866   0.3698  85.5104 0000606  16.2695  43.9539  1.00272095 35228
FENGYUN 4A              
1 41882U 16077A   26179.97137895 -.00000347  00000+0  00000+0 0  9991
2 41882   2.3520  80.1628 0007930 158.0328 152.2251  1.00277966 35046
CYGFM05                 
1 41884U 16078A   26179.72125979  .00021964  00000+0  29222-3 0  9995
2 41884  34.9548 184.1840 0008246 253.9103 106.0713 15.57145732530555
CYGFM04                 
1 41885U 16078B   26179.97509591  .00030126  00000+0  33056-3 0  9999
2 41885  34.9306 149.5909 0007118 291.7454  68.2514 15.62149463530846
CYGFM02                 
1 41886U 16078C   26179.95283236  .00034989  00000+0  33921-3 0  9995
2 41886  34.9387 143.9250 0008061 293.9987  65.9895 15.65249488531013
CYGFM01                 
1 41887U 16078D   26179.70488272  .00022196  00000+0  28771-3 0  9990
2 41887  34.9378 185.2560 0008005 248.5421 111.4450 15.57838509530500
CYGFM08                 
1 41888U 16078E   26179.96423040  .00027263  00000+0  31758-3 0  9990
2 41888  34.9409 162.7987 0009024 278.8920  81.0784 15.60602420530812
CYGFM07                 
1 41890U 16078G   26179.98660917  .00027442  00000+0  31858-3 0  9991
2 41890  34.9428 150.9813 0007473 291.7435  68.2495 15.60706360530841
CYGFM03                 
1 41891U 16078H   26179.95767229  .00027101  00000+0  31479-3 0  9994
2 41891  34.9384 153.1072 0007270 279.4459  80.5444 15.60696256530819
