OBJECT_NAME,OBJECT_ID,EPOCH,MEAN_MOTION,ECCENTRICITY,INCLINATION,RA_OF_ASC_NODE,ARG_OF_PERICENTER,MEAN_ANOMALY,EPHEMERIS_TYPE,CLASSIFICATION_TYPE,NORAD_CAT_ID,ELEMENT_SET_NO,REV_AT_EPOCH,BSTAR,MEAN_MOTION_DOT,MEAN_MOTION_DDOT
DMSP 5D-3 F16 (USA 172),2003-048A,2026-06-28T23:41:14.159616,14.14483866,.00081297,98.9887,203.8932,110.8262,357.9804,0,U,28054,999,17115,.23376495E-4,0,0
METEOSAT-9 (MSG-2),2005-049B,2026-06-28T23:14:59.974944,1.00278597,.00019199,9.3869,54.0519,359.7363,257.8028,0,U,28912,999,711,0,.126E-5,0
DMSP 5D-3 F17 (USA 191),2006-050A,2026-06-28T21:47:10.946112,14.14994429,.00106766,98.7378,186.2380,28.6287,331.5471,0,U,29522,999,1408,.41057519E-4,.36E-6,0
FENGYUN 3A,2008-026A,2026-06-28T19:38:01.724928,14.19573428,.00098827,98.6885,120.4338,93.7392,266.4914,0,U,32958,999,93705,.46229345E-4,.54E-6,0
GOES 14,2009-033A,2026-06-28T23:22:01.829856,1.00107335,.00022801,1.7194,82.9122,21.3456,298.2505,0,U,35491,999,670,0,-.32E-5,0
DMSP 5D-3 F18 (USA 210),2009-057A,2026-06-28T22:48:53.747712,14.14903170,.00102849,98.9042,160.6944,212.8775,147.1759,0,U,35951,999,86125,.13802751E-3,.222E-5,0
EWS-G2 (GOES 15),2010-008A,2026-06-28T17:53:43.189728,1.00268162,.00053876,1.3085,82.6878,43.8521,122.2535,0,U,36411,999,5975,0,.31E-6,0
COMS 1,2010-032A,2026-06-28T21:08:24.268416,0.99167678,.00119063,4.8340,75.2205,13.2283,172.4608,0,U,36744,999,5120,0,0,0
FENGYUN 3B,2010-059A,2026-06-28T23:36:16.172928,14.14844587,.00225576,98.9620,226.0477,150.8489,327.1675,0,U,37214,999,80909,.12543184E-3,.198E-5,0
SUOMI NPP,2011-061A,2026-06-28T23:17:51.517824,14.19519672,.00008728,98.7955,120.7664,329.4173,30.6952,0,U,37849,999,76011,.44007678E-4,.48E-6,0
METEOSAT-10 (MSG-3),2012-035B,2026-06-28T22:43:27.528960,1.00269046,.00017404,4.6984,60.9662,11.6522,185.4397,0,U,38552,999,5097,0,.1E-7,0
METOP-B,2012-049A,2026-06-28T22:40:41.112192,14.21442332,.00015067,98.6499,231.2093,343.0595,17.0532,0,U,38771,999,71493,.62373548E-4,.93E-6,0
INSAT-3D,2013-038B,2026-06-28T23:20:24.485568,1.00270831,.00011529,1.9556,82.4049,7.2446,307.0312,0,U,39216,999,4719,0,-.329E-5,0
FENGYUN 3C,2013-052A,2026-06-28T22:00:24.423840,14.15757563,.00145664,98.4985,153.2534,354.5750,5.5264,0,U,39260,999,66022,.54862459E-4,.66E-6,0
METEOR-M 2,2014-037A,2026-06-28T23:18:24.314400,14.21465095,.00061369,98.5113,155.2921,14.2829,345.8521,0,U,40069,999,62099,.79447579E-4,.132E-5,0
HIMAWARI-8,2014-060A,2026-06-28T21:40:58.740960,1.00273514,.00011285,0.0170,350.9206,105.0666,286.9157,0,U,40267,999,4287,0,-.264E-5,0
FENGYUN 2G,2014-090A,2026-06-28T23:34:38.712000,1.00268300,.00036392,5.6682,72.6781,149.6814,147.9948,0,U,40367,999,4211,0,-.295E-5,0
METEOSAT-11 (MSG-4),2015-034A,2026-06-28T21:03:32.234688,1.00266734,.00022291,3.2298,71.0380,347.7358,183.4638,0,U,40732,999,733,0,.7E-6,0
ELEKTRO-L 2,2015-074A,2026-06-27T22:42:11.116800,1.00271140,.000068,6.7214,70.3918,283.3260,248.3287,0,U,41105,999,3861,0,-.113E-5,0
SENTINEL-3A,2016-011A,2026-06-28T22:16:41.611296,14.26735697,.00014291,98.6246,247.1431,96.2235,263.9108,0,U,41335,999,53973,.5754663E-4,.96E-6,0
INSAT-3DR,2016-054A,2026-06-27T18:21:45.980064,1.00272445,.0010036,0.1323,86.1351,186.7215,352.4288,0,U,41752,999,3592,0,-.65E-6,0
HIMAWARI-9,2016-064A,2026-06-28T23:23:39.175008,1.00270302,.00012189,0.0151,71.9422,45.9539,290.8317,0,U,41836,999,3532,0,-.264E-5,0
GOES 16,2016-071A,2026-06-28T22:13:38.762976,1.00272095,.00006068,0.3698,85.5104,16.2695,43.9539,0,U,41866,999,3522,0,-.8E-6,0
FENGYUN 4A,2016-077A,2026-06-28T23:18:47.141280,1.00277966,.00079308,2.3520,80.1628,158.0328,152.2251,0,U,41882,999,3504,0,-.347E-5,0
CYGFM05,2016-078A,2026-06-28T17:18:36.845856,15.57145732,.00082468,34.9548,184.1840,253.9103,106.0713,0,U,41884,999,53055,.29222088E-3,.21964E-3,0
CYGFM04,2016-078B,2026-06-28T23:24:08.286624,15.62149463,.00071183,34.9306,149.5909,291.7454,68.2514,0,U,41885,999,53084,.33055623E-3,.30126E-3,0
CYGFM02,2016-078C,2026-06-28T22:52:04.715904,15.65249488,.00080614,34.9387,143.9250,293.9987,65.9895,0,U,41886,999,53101,.33921356E-3,.34989E-3,0
CYGFM01,2016-078D,2026-06-28T16:55:01.867008,15.57838509,.0008005,34.9378,185.2560,248.5421,111.4450,0,U,41887,999,53050,.28771272E-3,.22196E-3,0
CYGFM08,2016-078E,2026-06-28T23:08:29.506560,15.60602420,.00090248,34.9409,162.7987,278.8920,81.0784,0,U,41888,999,53081,.31757883E-3,.27263E-3,0
CYGFM07,2016-078G,2026-06-28T23:40:43.032288,15.60706360,.00074736,34.9428,150.9813,291.7435,68.2495,0,U,41890,999,53084,.31857732E-3,.27442E-3,0
CYGFM03,2016-078H,2026-06-28T22:59:02.885856,15.60696256,.00072705,34.9384,153.1072,279.4459,80.5444,0,U,41891,999,53081,.3147854E-3,.27101E-3,0
